DMSP 5D-3 F16 (USA 172) 
1 28054U 03048A   26088.16639286  .00000183  00000+0  11902-3 0  9996
2 28054  98.9968 111.4393 0007364  22.6894  64.2657 14.14469726158179
METEOSAT-9 (MSG-2)      
1 28912U 05049B   26087.55372006  .00000111  00000+0  00000+0 0  9992
2 28912   9.1814  54.9434 0000189 125.5968 250.3933  1.00272852  6198
DMSP 5D-3 F17 (USA 191) 
1 29522U 06050A   26088.12395367  .00000225  00000+0  13871-3 0  9992
2 29522  98.7409  96.3249 0008945 286.8612  73.1580 14.14972726  1100
FENGYUN 3A              
1 32958U 08026A   26088.11848463  .00000100  00000+0  67738-4 0  9997
2 32958  98.6822  30.4772 0008846   6.1248 354.0035 14.19552207924049
GOES 14                 
1 35491U 09033A   26088.22211098  .00000052  00000+0  00000+0 0  9991
2 35491   1.4842  84.0175 0001735 278.8459  90.5987  1.00108852  5791
DMSP 5D-3 F18 (USA 210) 
1 35951U 09057A   26088.23075368  .00000335  00000+0  19648-3 0  9993
2 35951  98.8990  69.1985 0012049 115.4552 244.7869 14.14848674848282
EWS-G2 (GOES 15)        
1 36411U 10008A   26088.12777348  .00000004  00000+0  00000+0 0  9999
2 36411   1.0690  84.4537 0002709  19.2530 192.1222  1.00270431 58833
COMS 1                  
1 36744U 10032A   26087.85532473 -.00000360  00000+0  00000+0 0  9998
2 36744   4.5984  76.4793 0001054 282.6583 263.1816  1.00272704 50281
FENGYUN 3B              
1 37214U 10059A   26088.18434815  .00000138  00000+0  94548-4 0  9995
2 37214  98.9731 133.8260 0022929  55.2410  32.9475 14.14823213796113
SUOMI NPP               
1 37849U 11061A   26088.12688515  .00000076  00000+0  57173-4 0  9999
2 37849  98.7894  29.5773 0001693 158.3691 201.7557 14.19498561747084
METEOSAT-10 (MSG-3)     
1 38552U 12035B   26088.18653373 -.00000022  00000+0  00000+0 0  9997
2 38552   4.4835  61.3515 0002445 285.5286 266.9163  1.00271476 50052
METOP-B                 
1 38771U 12049A   26088.15445016  .00000121  00000+0  75061-4 0  9998
2 38771  98.6599 141.2176 0002057 189.0347 171.0794 14.21424584701891
INSAT-3D                
1 39216U 13038B   26087.99823779 -.00000357  00000+0  00000+0 0  9997
2 39216   1.7195  83.5474 0001579 246.6189 345.1445  1.00268917 46274
FENGYUN 3C              
1 39260U 13052A   26088.18206139  .00000147  00000+0  95943-4 0  9990
2 39260  98.4924  65.7595 0013517 252.6343 107.3353 14.15735115647245
METEOR-M 2              
1 40069U 14037A   26088.18180687  .00000344  00000+0  17657-3 0  9996
2 40069  98.5054  66.7825 0004541 271.4017  88.6641 14.21437477607952
HIMAWARI-8              
1 40267U 14060A   26087.92914050 -.00000295  00000+0  00000+0 0  9998
2 40267   0.0225 110.3390 0000779 227.2731 323.8726  1.00270447 41959
FENGYUN 2G              
1 40367U 14090A   26087.92127954 -.00000315  00000+0  00000+0 0  9994
2 40367   5.4366  73.7708 0001775 147.9858  35.6831  1.00263520 41190
